{"type": "FeatureCollection", "features": [ {"type": "Feature", "properties": {"norad_id": 34908, "name": "COSMOS 2251 DEB", "group": "cosmos-2251-debris", "lat": -31.431265363026196, "lon": 29.365468755624406, "alt_km": 773.4433055669688, "timestamp": "2025-12-04T03:47:54.937532+00:00", "meta": {"OBJECT_NAME": "COSMOS 2251 DEB", "OBJECT_ID": "1993-036ADD", "EPOCH": "2025-12-03T11:19:03.946944", "MEAN_MOTION": 14.37353122, "ECCENTRICITY": 0.0039845, "INCLINATION": 74.0586, "RA_OF_ASC_NODE": 40.6868, "ARG_OF_PERICENTER": 59.9584, "MEAN_ANOMALY": 315.8694, "EPHEMERIS_TYPE": 0, "CLASSIFICATION_TYPE": "U", "NORAD_CAT_ID": 34908, "ELEMENT_SET_NO": 999, "REV_AT_EPOCH": 87146, "BSTAR": 0.00072639, "MEAN_MOTION_DOT": 2.163e-05, "MEAN_MOTION_DDOT": 0}, "tle": {"line1": "1 34908U 93036ADD 25337.47157346  .00002163  00000+0  72639-3 0  9993", "line2": "2 34908  74.0586  40.6868 0039845  59.9584 315.8694 14.37353122871460"}}, "geometry": {"type": "Point", "coordinates": [29.365468755624406, -31.431265363026196]}}, {"type": "Feature", "properties": {"norad_id": 34909, "name": "COSMOS 2251 DEB", "group": "cosmos-2251-debris", "lat": -60.25469306418788, "lon": 63.329285215610604, "alt_km": 617.1904092776122, "timestamp": "2025-12-04T03:47:54.937542+00:00", "meta": {"OBJECT_NAME": "COSMOS 2251 DEB", "OBJECT_ID": "1993-036ADE", "EPOCH": "2025-12-02T16:20:39.593184", "MEAN_MOTION": 14.77677518, "ECCENTRICITY": 0.00852182, "INCLINATION": 74.0135, "RA_OF_ASC_NODE": 96.3432, "ARG_OF_PERICENTER": 234.3085, "MEAN_ANOMALY": 125.0138, "EPHEMERIS_TYPE": 0, "CLASSIFICATION_TYPE": "U", "NORAD_CAT_ID": 34909, "ELEMENT_SET_NO": 999, "REV_AT_EPOCH": 66703, "BSTAR": 0.00090528683, "MEAN_MOTION_DOT": 6.857e-05, "MEAN_MOTION_DDOT": 0}, "tle": {"line1": "1 34909U 93036ADE 25336.68101381  .00006857  00000+0  90529-3 0  9996", "line2": "2 34909  74.0135  96.3432 0085218 234.3085 125.0138 14.77677518667038"}}, "geometry": {"type": "Point", "coordinates": [63.329285215610604, -60.25469306418788]}}, {"type": "Feature", "properties": {"norad_id": 34910, "name": "COSMOS 2251 DEB", "group": "cosmos-2251-debris", "lat": -70.02337907192758, "lon": -12.299229124378169, "alt_km": 799.0493612934315, "timestamp": "2025-12-04T03:47:54.937552+00:00", "meta": {"OBJECT_NAME": "COSMOS 2251 DEB", "OBJECT_ID": "1993-036ADF", "EPOCH": "2025-12-02T16:32:32.334432", "MEAN_MOTION": 13.37643089, "ECCENTRICITY": 0.0468107, "INCLINATION": 73.8742, "RA_OF_ASC_NODE": 117.2836, "ARG_OF_PERICENTER": 237.8282, "MEAN_ANOMALY": 146.7075, "EPHEMERIS_TYPE": 0, "CLASSIFICATION_TYPE": "U", "NORAD_CAT_ID": 34910, "ELEMENT_SET_NO": 999, "REV_AT_EPOCH": 81390, "BSTAR": 0.001305183, "MEAN_MOTION_DOT": 1.267e-05, "MEAN_MOTION_DDOT": 0}, "tle": {"line1": "1 34910U 93036ADF 25336.68926313  .00001267  00000+0  13052-2 0  9993", "line2": "2 34910  73.8742 117.2836 0468107 237.8282 146.7075 13.37643089813901"}}, "geometry": {"type": "Point", "coordinates": [-12.299229124378169, -70.02337907192758]}}, {"type": "Feature", "properties": {"norad_id": 34911, "name": "COSMOS 2251 DEB", "group": "cosmos-2251-debris", "lat": -54.88009040119879, "lon": 105.10618500348569, "alt_km": 753.0660752613803, "timestamp": "2025-12-04T03:47:54.937562+00:00", "meta": {"OBJECT_NAME": "COSMOS 2251 DEB", "OBJECT_ID": "1993-036ADG", "EPOCH": "2025-12-03T06:00:27.635040", "MEAN_MOTION": 14.59344505, "ECCENTRICITY": 0.008317, "INCLINATION": 74.0412, "RA_OF_ASC_NODE": 262.8282, "ARG_OF_PERICENTER": 30.7099, "MEAN_ANOMALY": 119.8806, "EPHEMERIS_TYPE": 0, "CLASSIFICATION_TYPE": "U", "NORAD_CAT_ID": 34911, "ELEMENT_SET_NO": 999, "REV_AT_EPOCH": 88448, "BSTAR": 0.00027459, "MEAN_MOTION_DOT": 1.332e-05, "MEAN_MOTION_DDOT": 0}, "tle": {"line1": "1 34911U 93036ADG 25337.25031985  .00001332  00000+0  27459-3 0  9990", "line2": "2 34911  74.0412 262.8282 0083170  30.7099 119.8806 14.59344505884480"}}, "geometry": {"type": "Point", "coordinates": [105.10618500348569, -54.88009040119879]}}, {"type": "Feature", "properties": {"norad_id": 34913, "name": "COSMOS 2251 DEB", "group": "cosmos-2251-debris", "lat": -68.49076391442848, "lon": -108.3892625486976, "alt_km": 791.6878200212814, "timestamp": "2025-12-04T03:47:54.937572+00:00", "meta": {"OBJECT_NAME": "COSMOS 2251 DEB", "OBJECT_ID": "1993-036ADJ", "EPOCH": "2025-12-02T16:08:10.454208", "MEAN_MOTION": 14.34632081, "ECCENTRICITY": 0.00200026, "INCLINATION": 74.0276, "RA_OF_ASC_NODE": 300.9473, "ARG_OF_PERICENTER": 54.1655, "MEAN_ANOMALY": 119.3628, "EPHEMERIS_TYPE": 0, "CLASSIFICATION_TYPE": "U", "NORAD_CAT_ID": 34913, "ELEMENT_SET_NO": 999, "REV_AT_EPOCH": 65043, "BSTAR": 7.0680463e-05, "MEAN_MOTION_DOT": 1.74e-06, "MEAN_MOTION_DDOT": 0}, "tle": {"line1": "1 34913U 93036ADJ 25336.67234322  .00000174  00000+0  70680-4 0  9995", "line2": "2 34913  74.0276 300.9473 0020002  54.1655 119.3628 14.34632081650434"}}, "geometry": {"type": "Point", "coordinates": [-108.3892625486976, -68.49076391442848]}}, {"type": "Feature", "properties": {"norad_id": 34918, "name": "COSMOS 2251 DEB", "group": "cosmos-2251-debris", "lat": -23.367092880664924, "lon": -37.088648846291456, "alt_km": 676.128083483718, "timestamp": "2025-12-04T03:47:54.937582+00:00", "meta": {"OBJECT_NAME": "COSMOS 2251 DEB", "OBJECT_ID": "1993-036ADP", "EPOCH": "2025-12-02T07:49:20.078112", "MEAN_MOTION": 14.60858458, "ECCENTRICITY": 0.0034182, "INCLINATION": 74.0712, "RA_OF_ASC_NODE": 333.4916, "ARG_OF_PERICENTER": 302.4495, "MEAN_ANOMALY": 120.4085, "EPHEMERIS_TYPE": 0, "CLASSIFICATION_TYPE": "U", "NORAD_CAT_ID": 34918, "ELEMENT_SET_NO": 999, "REV_AT_EPOCH": 65184, "BSTAR": 0.0024749, "MEAN_MOTION_DOT": 0.00012194, "MEAN_MOTION_DDOT": 0}, "tle": {"line1": "1 34918U 93036ADP 25336.32592683  .00012194  00000+0  24749-2 0  9997", "line2": "2 34918  74.0712 333.4916 0034182 302.4495 120.4085 14.60858458651845"}}, "geometry": {"type": "Point", "coordinates": [-37.088648846291456, -23.367092880664924]}}, {"type": "Feature", "properties": {"norad_id": 34924, "name": "COSMOS 2251 DEB", "group": "cosmos-2251-debris", "lat": 5.314188407654897, "lon": 107.34499554811183, "alt_km": 734.3882332911298, "timestamp": "2025-12-04T03:47:54.937592+00:00", "meta": {"OBJECT_NAME": "COSMOS 2251 DEB", "OBJECT_ID": "1993-036ADV", "EPOCH": "2025-12-02T04:22:00.331392", "MEAN_MOTION": 14.59847465, "ECCENTRICITY": 0.0055391, "INCLINATION": 74.0396, "RA_OF_ASC_NODE": 109.5877, "ARG_OF_PERICENTER": 196.6336, "MEAN_ANOMALY": 226.616, "EPHEMERIS_TYPE": 0, "CLASSIFICATION_TYPE": "U", "NORAD_CAT_ID": 34924, "ELEMENT_SET_NO": 999, "REV_AT_EPOCH": 87569, "BSTAR": 0.0014998, "MEAN_MOTION_DOT": 7.306e-05, "MEAN_MOTION_DDOT": 0}, "tle": {"line1": "1 34924U 93036ADV 25336.18194828  .00007306  00000+0  14998-2 0  9991", "line2": "2 34924  74.0396 109.5877 0055391 196.6336 226.6160 14.59847465875698"}}, "geometry": {"type": "Point", "coordinates": [107.34499554811183, 5.314188407654897]}}, {"type": "Feature", "properties": {"norad_id": 34944, "name": "COSMOS 2251 DEB", "group": "cosmos-2251-debris", "lat": 72.46918983792467, "lon": -45.06783217100124, "alt_km": 683.1977542937093, "timestamp": "2025-12-04T03:47:54.937602+00:00", "meta": {"OBJECT_NAME": "COSMOS 2251 DEB", "OBJECT_ID": "1993-036ADX", "EPOCH": "2025-12-03T10:26:13.836768", "MEAN_MOTION": 14.14147851, "ECCENTRICITY": 0.0219699, "INCLINATION": 73.7497, "RA_OF_ASC_NODE": 248.822, "ARG_OF_PERICENTER": 98.0447, "MEAN_ANOMALY": 264.5682, "EPHEMERIS_TYPE": 0, "CLASSIFICATION_TYPE": "U", "NORAD_CAT_ID": 34944, "ELEMENT_SET_NO": 999, "REV_AT_EPOCH": 63951, "BSTAR": 0.00087622, "MEAN_MOTION_DOT": 2.079e-05, "MEAN_MOTION_DDOT": 0}, "tle": {"line1": "1 34944U 93036ADX 25337.43488237  .00002079  00000+0  87622-3 0  9999", "line2": "2 34944  73.7497 248.8220 0219699  98.0447 264.5682 14.14147851639510"}}, "geometry": {"type": "Point", "coordinates": [-45.06783217100124, 72.46918983792467]}}, {"type": "Feature", "properties": {"norad_id": 34946, "name": "COSMOS 2251 DEB", "group": "cosmos-2251-debris", "lat": 29.99559545505231, "lon": 169.03697936282262, "alt_km": 650.9571196283905, "timestamp": "2025-12-04T03:47:54.937613+00:00", "meta": {"OBJECT_NAME": "COSMOS 2251 DEB", "OBJECT_ID": "1993-036ADZ", "EPOCH": "2025-12-03T10:41:59.541792", "MEAN_MOTION": 14.61913344, "ECCENTRICITY": 0.004909, "INCLINATION": 74.0234, "RA_OF_ASC_NODE": 359.9203, "ARG_OF_PERICENTER": 139.9873, "MEAN_ANOMALY": 220.4928, "EPHEMERIS_TYPE": 0, "CLASSIFICATION_TYPE": "U", "NORAD_CAT_ID": 34946, "ELEMENT_SET_NO": 999, "REV_AT_EPOCH": 88073, "BSTAR": 0.00076627, "MEAN_MOTION_DOT": 3.872e-05, "MEAN_MOTION_DDOT": 0}, "tle": {"line1": "1 34946U 93036ADZ 25337.44582803  .00003872  00000+0  76627-3 0  9991", "line2": "2 34946  74.0234 359.9203 0049090 139.9873 220.4928 14.61913344880730"}}, "geometry": {"type": "Point", "coordinates": [169.03697936282262, 29.99559545505231]}}, {"type": "Feature", "properties": {"norad_id": 34949, "name": "COSMOS 2251 DEB", "group": "cosmos-2251-debris", "lat": 35.237600917121526, "lon": 138.10099131721125, "alt_km": 676.8796214051463, "timestamp": "2025-12-04T03:47:54.937623+00:00", "meta": {"OBJECT_NAME": "COSMOS 2251 DEB", "OBJECT_ID": "1993-036AEC", "EPOCH": "2025-12-03T03:11:45.204576", "MEAN_MOTION": 14.73888049, "ECCENTRICITY": 0.00804743, "INCLINATION": 74.0167, "RA_OF_ASC_NODE": 128.421, "ARG_OF_PERICENTER": 275.6913, "MEAN_ANOMALY": 83.5088, "EPHEMERIS_TYPE": 0, "CLASSIFICATION_TYPE": "U", "NORAD_CAT_ID": 34949, "ELEMENT_SET_NO": 999, "REV_AT_EPOCH": 88220, "BSTAR": 0.00069404332, "MEAN_MOTION_DOT": 4.76e-05, "MEAN_MOTION_DDOT": 0}, "tle": {"line1": "1 34949U 93036AEC 25337.13316209  .00004760  00000+0  69404-3 0  9997", "line2": "2 34949  74.0167 128.4210 0080474 275.6913  83.5088 14.73888049882204"}}, "geometry": {"type": "Point", "coordinates": [138.10099131721125, 35.237600917121526]}}]}